{
    "links": {
        "self": "http://www.neowsapp.com/rest/v1/neo/3551064?api_key=iIulBulltgU6a56xZRHN4H3l9WmuAYTsLGpBGhQ2"
    },
    "id": "3551064",
    "neo_reference_id": "3551064",
    "name": "(2010 VA72)",
    "designation": "2010 VA72",
    "nasa_jpl_url": "http://ssd.jpl.nasa.gov/sbdb.cgi?sstr=3551064",
    "absolute_magnitude_h": 23.3,
    "estimated_diameter": {
        "kilometers": {
            "estimated_diameter_min": 0.058150704,
            "estimated_diameter_max": 0.130028927
        },
        "meters": {
            "estimated_diameter_min": 58.1507039646,
            "estimated_diameter_max": 130.0289270043
        },
        "miles": {
            "estimated_diameter_min": 0.0361331611,
            "estimated_diameter_max": 0.0807962044
        },
        "feet": {
            "estimated_diameter_min": 190.7831555951,
            "estimated_diameter_max": 426.6041048727
        }
    },
    "is_potentially_hazardous_asteroid": false,
    "close_approach_data": [
        {
            "close_approach_date": "2010-10-07",
            "close_approach_date_full": "2010-Oct-07 15:55",
            "epoch_date_close_approach": 1286466900000,
            "relative_velocity": {
                "kilometers_per_second": "8.0300500746",
                "kilometers_per_hour": "28908.1802684756",
                "miles_per_hour": "17962.4190118203"
            },
            "miss_distance": {
                "astronomical": "0.0575110596",
                "lunar": "22.3718021844",
                "kilometers": "8603532.017603052",
                "miles": "5345986.8990320376"
            },
            "orbiting_body": "Earth"
        }
    ],
    "orbital_data": {
        "orbit_id": "8",
        "orbit_determination_date": "2019-07-16 06:14:06",
        "first_observation_date": "2010-11-08",
        "last_observation_date": "2010-11-11",
        "data_arc_in_days": 3,
        "observations_used": 31,
        "orbit_uncertainty": "9",
        "minimum_orbit_intersection": ".0572326",
        "jupiter_tisserand_invariant": "3.132",
        "epoch_osculation": "2455509.5",
        "eccentricity": ".6055228589702352",
        "semi_major_axis": "2.586171807458666",
        "inclination": "3.503007160130957",
        "ascending_node_longitude": "69.29932689980369",
        "orbital_period": "1519.09343346097",
        "perihelion_distance": "1.020185660818074",
        "perihelion_argument": "294.6048186329699",
        "aphelion_distance": "4.152157954099257",
        "perihelion_time": "2455468.853441780786",
        "mean_anomaly": "9.632561524263215",
        "mean_motion": ".236983448200291",
        "equinox": "J2000",
        "orbit_class": {
            "orbit_class_type": "AMO",
            "orbit_class_description": "Near-Earth asteroid orbits similar to that of 1221 Amor",
            "orbit_class_range": "1.017 AU < q (perihelion) < 1.3 AU"
        }
    },
    "is_sentry_object": false
}